NORAD_CAT_ID,OBJECT_NAME,OBJECT_TYPE,EPOCH,MEAN_MOTION,ECCENTRICITY,INCLINATION,RA_OF_ASC_NODE,ARG_OF_PERICENTER,MEAN_ANOMALY,BSTAR,MEAN_MOTION_DOT,MEAN_MOTION_DDOT,TLE_LINE0,TLE_LINE1,TLE_LINE2,SEMIMAJOR_AXIS,PERIOD,APOGEE,PERIGEE,DECAYED
54077.0,STARLINK-5171,PAYLOAD,2024-05-08 15:14:36,15.08838791,0.000213,53.2188,91.7857,98.3832,261.7401,3.2209e-06,-2.37e-06,0.0,0 STARLINK-5171,1 54077U 22136AC  24129.63514779 -.00000237  00000-0  32209-5 0  9991,2 54077  53.2188  91.7857 0002130  98.3832 261.7401 15.08838791 85978,6917.884,95.438,541.223,538.276,0.0
54077.0,STARLINK-5171,PAYLOAD,2024-05-09 03:57:40,15.0885549,0.0001926,53.2179,89.4073,94.9286,265.1926,3.1391e-05,2.12e-06,0.0,0 STARLINK-5171,1 54077U 22136AC  24130.16505668  .00000212  00000-0  31391-4 0  9990,2 54077  53.2179  89.4073 0001926  94.9286 265.1926 15.08855490 86537,6917.833,95.437,541.03,538.366,0.0
54077.0,STARLINK-5171,PAYLOAD,2024-05-10 03:48:28,15.08838258,0.0001724,53.2177,84.9505,89.0471,271.0719,0.00016678,2.367e-05,0.0,0 STARLINK-5171,1 54077U 22136AC  24131.15866644  .00002367  00000-0  16678-3 0  9997,2 54077  53.2177  84.9505 0001724  89.0471 271.0719 15.08838258 86687,6917.886,95.438,540.943,538.558,0.0
54077.0,STARLINK-5171,PAYLOAD,2024-05-10 13:20:47,15.08840335,0.0001712,53.2165,83.1645,86.3998,273.719,7.7343e-05,9.43e-06,0.0,0 STARLINK-5171,1 54077U 22136AC  24131.55610836  .00000943  00000-0  77343-4 0  9996,2 54077  53.2165  83.1645 0001712  86.3998 273.7190 15.08840335 86266,6917.879,95.438,540.929,538.56,0.0
54077.0,STARLINK-5171,PAYLOAD,2024-05-10 21:17:43,15.08838211,0.0001813,53.2183,81.6797,86.6635,273.4564,3.9561e-05,3.42e-06,0.0,0 STARLINK-5171,1 54077U 22136AC  24131.88731163  .00000342  00000-0  39561-4 0  9992,2 54077  53.2183  81.6797 0001813  86.6635 273.4564 15.08838211 86318,6917.886,95.438,541.005,538.497,0.0
54077.0,STARLINK-5171,PAYLOAD,2024-05-11 03:39:14,15.08867796,0.000228,53.2189,80.4878,112.9315,247.1918,0.00021238,3.096e-05,0.0,0 STARLINK-5171,1 54077U 22136AC  24132.15224539  .00003096  00000-0  21238-3 0  9997,2 54077  53.2189  80.4878 0002280 112.9315 247.1918 15.08867796 86836,6917.795,95.436,541.238,538.083,0.0
54077.0,STARLINK-5171,PAYLOAD,2024-05-11 13:11:30,15.08891658,0.0001821,53.218,78.7028,90.6218,269.4983,0.000463,7.099e-05,0.0,0 STARLINK-5171,1 54077U 22136AC  24132.54965614  .00007099  00000-0  46300-3 0  9990,2 54077  53.2180  78.7028 0001821  90.6218 269.4983 15.08891658 86897,6917.722,95.434,540.847,538.328,0.0
54077.0,STARLINK-5171,PAYLOAD,2024-05-12 05:05:30,15.08729466,0.0001279,53.2176,75.7309,92.3442,267.7697,-0.0016458,-0.00026306,0.0,0 STARLINK-5171,1 54077U 22136AC  24133.21215373 -.00026306  00000-0 -16458-2 0  9999,2 54077  53.2176  75.7309 0001279  92.3442 267.7697 15.08729466 86997,6918.218,95.445,540.968,539.198,0.0
54077.0,STARLINK-5171,PAYLOAD,2024-05-12 13:02:26,15.08746725,0.000149,53.2183,74.2471,116.8057,243.3088,-0.0011615,-0.00018678,0.0,0 STARLINK-5171,1 54077U 22136AC  24133.54336409 -.00018678  00000-0 -11615-2 0  9992,2 54077  53.2183  74.2471 0001490 116.8057 243.3088 15.08746725 87046,6918.166,95.443,541.061,539.0,0.0
54077.0,STARLINK-5171,PAYLOAD,2024-05-13 03:20:52,15.08836249,0.0001787,53.2181,71.5669,111.4606,248.6577,0.00014296,1.988e-05,0.0,0 STARLINK-5171,1 54077U 22136AC  24134.13949990  .00001988  00000-0  14296-3 0  9996,2 54077  53.2181  71.5669 0001787 111.4606 248.6577 15.08836249 87135,6917.892,95.438,540.993,538.521,0.0
54077.0,STARLINK-5171,PAYLOAD,2024-05-13 12:53:11,15.08848346,0.0001685,53.2178,69.7832,103.2549,256.8631,0.00022225,3.252e-05,0.0,0 STARLINK-5171,1 54077U 22136AC  24134.53693612  .00003252  00000-0  22225-3 0  9994,2 54077  53.2178  69.7832 0001685 103.2549 256.8631 15.08848346 86710,6917.855,95.437,540.886,538.554,0.0
54077.0,STARLINK-5171,PAYLOAD,2024-05-14 04:47:01,15.08808899,0.0001312,53.218,66.8091,98.762,261.3521,0.0012499,0.00019643,0.0,0 STARLINK-5171,1 54077U 22136AC  24135.19932779  .00019643  00000-0  12499-2 0  9999,2 54077  53.2180  66.8091 0001312  98.7620 261.3521 15.08808899 87295,6917.975,95.44,540.748,538.933,0.0
54077.0,STARLINK-5171,PAYLOAD,2024-05-15 04:37:46,15.08890884,0.0001997,53.2208,62.3422,122.5823,237.5362,0.00026424,3.925e-05,0.0,0 STARLINK-5171,1 54077U 22136AC  24136.19290246  .00003925  00000-0  26424-3 0  9996,2 54077  53.2208  62.3422 0001997 122.5823 237.5362 15.08890884 87445,6917.725,95.434,540.971,538.208,0.0
54077.0,STARLINK-5171,PAYLOAD,2024-05-15 22:07:02,15.08860662,0.0001676,53.221,59.0758,103.2244,256.8935,-0.00018534,-3.238e-05,0.0,0 STARLINK-5171,1 54077U 22136AC  24136.92155998 -.00003238  00000-0 -18534-3 0  9993,2 54077  53.2210  59.0758 0001676 103.2244 256.8935 15.08860662 87070,6917.817,95.436,540.842,538.523,0.0
54077.0,STARLINK-5171,PAYLOAD,2024-05-16 01:17:48,15.08859168,0.0001557,53.2197,58.4803,113.4356,246.68,-0.00014631,-2.617e-05,0.0,0 STARLINK-5171,1 54077U 22136AC  24137.05403655 -.00002617  00000-0 -14631-3 0  9998,2 54077  53.2197  58.4803 0001557 113.4356 246.6800 15.08859168 87575,6917.822,95.436,540.764,538.61,0.0
54077.0,STARLINK-5171,PAYLOAD,2024-05-16 18:47:02,15.08860655,0.0001439,53.2197,55.2102,95.4017,264.7139,-0.00017853,-3.13e-05,0.0,0 STARLINK-5171,1 54077U 22136AC  24137.78266800 -.00003130  00000-0 -17853-3 0  9997,2 54077  53.2197  55.2102 0001439  95.4017 264.7139 15.08860655 87203,6917.817,95.436,540.678,538.687,0.0
54077.0,STARLINK-5171,PAYLOAD,2024-05-17 01:08:33,15.0887568,0.0001318,53.2192,54.0224,94.4466,265.6677,-0.00012354,-2.256e-05,0.0,0 STARLINK-5171,1 54077U 22136AC  24138.04761081 -.00002256  00000-0 -12354-3 0  9997,2 54077  53.2192  54.0224 0001318  94.4466 265.6677 15.08875680 87721,6917.771,95.435,540.548,538.725,0.0
54077.0,STARLINK-5171,PAYLOAD,2024-05-17 21:48:37,15.08827203,0.0001376,53.2181,50.1569,79.8141,280.3006,-3.8518e-05,-9.01e-06,0.0,0 STARLINK-5171,1 54077U 22136AC  24138.90876239 -.00000901  00000-0 -38518-4 0  9990,2 54077  53.2181  50.1569 0001376  79.8141 280.3006 15.08827203 87851,6917.92,95.438,540.736,538.833,0.0
54077.0,STARLINK-5171,PAYLOAD,2024-05-18 04:10:09,15.08836307,0.0001349,53.2179,48.9662,93.9054,266.2093,5.333e-05,5.61e-06,0.0,0 STARLINK-5171,1 54077U 22136AC  24139.17371824  .00000561  00000-0  53330-4 0  9999,2 54077  53.2179  48.9662 0001349  93.9054 266.2093 15.08836307 87895,6917.892,95.438,540.69,538.823,0.0
54077.0,STARLINK-5171,PAYLOAD,2024-05-18 10:31:42,15.08811359,0.0001311,53.2173,47.7763,99.2218,260.8922,0.00037972,5.756e-05,0.0,0 STARLINK-5171,1 54077U 22136AC  24139.43868829  .00005756  00000-0  37972-3 0  9998,2 54077  53.2173  47.7763 0001311  99.2218 260.8922 15.08811359 87934,6917.968,95.439,540.74,538.926,0.0
54077.0,STARLINK-5171,PAYLOAD,2024-05-18 21:39:24,15.08828033,0.0001479,53.2189,45.6998,103.3696,256.7461,-0.00014677,-2.622e-05,0.0,0 STARLINK-5171,1 54077U 22136AC  24139.90237052 -.00002622  00000-0 -14677-3 0  9996,2 54077  53.2189  45.6998 0001479 103.3696 256.7461 15.08828033 88008,6917.917,95.438,540.805,538.759,0.0
54077.0,STARLINK-5171,PAYLOAD,2024-05-19 00:50:09,15.08846393,0.0001197,53.2177,45.1014,89.035,271.0779,6.0672e-06,-1.91e-06,0.0,0 STARLINK-5171,1 54077U 22136AC  24140.03483543 -.00000191  00000-0  60672-5 0  9996,2 54077  53.2177  45.1014 0001197  89.0350 271.0779 15.08846393 88026,6917.861,95.437,540.554,538.898,0.0
54077.0,STARLINK-5171,PAYLOAD,2024-05-19 16:44:02,15.08823389,0.0001472,53.2183,42.1319,112.5759,247.5389,0.00014934,2.089e-05,0.0,0 STARLINK-5171,1 54077U 22136AC  24140.69725218  .00002089  00000-0  14934-3 0  9991,2 54077  53.2183  42.1319 0001472 112.5759 247.5389 15.08823389 88125,6917.931,95.439,540.814,538.778,0.0
54077.0,STARLINK-5171,PAYLOAD,2024-05-20 02:16:21,15.0883484,0.0001402,53.2187,40.3439,92.3703,267.7449,0.00022671,3.321e-05,0.0,0 STARLINK-5171,1 54077U 22136AC  24141.09468899  .00003321  00000-0  22671-3 0  9992,2 54077  53.2187  40.3439 0001402  92.3703 267.7449 15.08834840 88180,6917.896,95.438,540.731,538.791,0.0
54077.0,STARLINK-5171,PAYLOAD,2024-05-21 00:31:43,15.08861481,0.0001224,53.2182,36.1796,90.6872,269.426,0.00019982,2.896e-05,0.0,0 STARLINK-5171,1 54077U 22136AC  24142.02203501  .00002896  00000-0  19982-3 0  9990,2 54077  53.2182  36.1796 0001224  90.6872 269.4260 15.08861481 88321,6917.815,95.436,540.526,538.833,0.0
54077.0,STARLINK-5171,PAYLOAD,2024-05-21 21:11:45,15.08846383,0.0001618,53.2195,32.3123,78.3706,281.7467,3.9878e-05,3.47e-06,0.0,0 STARLINK-5171,1 54077U 22136AC  24142.88316888  .00000347  00000-0  39878-4 0  9993,2 54077  53.2195  32.3123 0001618  78.3706 281.7467 15.08846383 88457,6917.861,95.437,540.845,538.607,0.0
54077.0,STARLINK-5171,PAYLOAD,2024-05-21 22:47:08,15.08848025,0.0001443,53.2193,32.0149,89.6958,270.42,5.1757e-05,5.36e-06,0.0,0 STARLINK-5171,1 54077U 22136AC  24142.94940640  .00000536  00000-0  51757-4 0  9999,2 54077  53.2193  32.0149 0001443  89.6958 270.4200 15.08848025 87982,6917.856,95.437,540.719,538.723,0.0
54077.0,STARLINK-5171,PAYLOAD,2024-05-22 00:22:31,15.08847149,0.0001465,53.219,31.7222,75.2022,284.9132,0.00013859,1.919e-05,0.0,0 STARLINK-5171,1 54077U 22136AC  24143.01564570  .00001919  00000-0  13859-3 0  9998,2 54077  53.2190  31.7222 0001465  75.2022 284.9132 15.08847149 87995,6917.859,95.437,540.737,538.71,0.0
54077.0,STARLINK-5171,PAYLOAD,2024-05-22 21:02:32,15.08847742,0.0001813,53.2197,27.8587,63.0432,297.0746,-9.7673e-07,-3.04e-06,0.0,0 STARLINK-5171,1 54077U 22136AC  24143.87676718 -.00000304  00000-0 -97673-6 0  9998,2 54077  53.2197  27.8587 0001813  63.0432 297.0746 15.08847742 88120,6917.857,95.437,540.976,538.468,0.0
54077.0,STARLINK-5171,PAYLOAD,2024-05-23 01:48:41,15.088568,0.000176,53.2187,26.9605,71.7786,288.3397,-2.8944e-05,-7.49e-06,0.0,0 STARLINK-5171,1 54077U 22136AC  24144.07547795 -.00000749  00000-0 -28944-4 0  9999,2 54077  53.2187  26.9605 0001760  71.7786 288.3397 15.08856800 88635,6917.829,95.436,540.912,538.477,0.0
